ORBCOMM FM36 [-]        
1 25984U 99065E   23350.60619213  .00000913  00000+0  36731-3 0  9993
2 25984  45.0385 163.6700 0003503  75.5463 284.5773 14.34948882255547
ORBCOMM FM35 [+]        
1 25985U 99065F   23350.61067122  .00000722  00000+0  30286-3 0  9998
2 25985  45.0383 165.8863 0003524 169.1993 190.8930 14.34615929255942
ORBCOMM FM34 [-]        
1 25986U 99065G   23350.57690759  .00000747  00000+0  31190-3 0  9994
2 25986  45.0381 166.5403 0004027 117.8838 242.2417 14.34570474256056
ORBCOMM FM38 [-]        
1 33060U 08031A   23350.98490298  .00001569  00000+0  25178-3 0  9992
2 33060  48.4436  37.5889 0005700 219.5387 140.5111 14.76577366833605
ORBCOMM FM41 [-]        
1 33061U 08031B   23350.28273740  .00001624  00000+0  26107-3 0  9992
2 33061  48.4469  47.1967 0004749 204.0988 275.7796 14.76327855833015
ORBCOMM FM29 [-]        
1 33062U 08031C   23350.99574219  .00001664  00000+0  26736-3 0  9998
2 33062  48.4421  51.8314 0006742 202.4055 217.0501 14.76218801833422
ORBCOMM FM39 [-]        
1 33063U 08031D   23350.45147071  .00001662  00000+0  27248-3 0  9999
2 33063  48.4427  73.8881 0007315 175.6411 184.4567 14.75336281832662
